{
  "type": "FeatureCollection",
  "features": [
    {
      "type": "Feature",
      "properties": {
        "norad_id": 33412,
        "name": "COSMO-SKYMED 3",
        "group": "resource",
        "lat": -22.2356132889646,
        "lon": -163.02559424046382,
        "alt_km": 565.7055029834291,
        "timestamp": "2025-12-09T09:46:47.303683+00:00",
        "meta_object_name": "COSMO-SKYMED 3",
        "meta_object_id": "2008-054A",
        "meta_epoch": "2025-12-09T03:29:53.468736",
        "meta_mean_motion": 15.052975,
        "meta_eccentricity": 0.0015807,
        "meta_inclination": 97.8453,
        "meta_ra_of_asc_node": 193.477,
        "meta_arg_of_pericenter": 186.3283,
        "meta_mean_anomaly": 173.7746,
        "meta_ephemeris_type": 0,
        "meta_classification_type": "U",
        "meta_norad_cat_id": 33412,
        "meta_element_set_no": 999,
        "meta_rev_at_epoch": 92833,
        "meta_bstar": 0.00041584,
        "meta_mean_motion_dot": 5.9e-05,
        "meta_mean_motion_ddot": 0,
        "tle_line1": "1 33412U 08054A   25343.14575774  .00005900  00000+0  41584-3 0  9995",
        "tle_line2": "2 33412  97.8453 193.4770 0015807 186.3283 173.7746 15.05297500928338"
      },
      "geometry": {
        "type": "Point",
        "coordinates": [
          -163.02559424046382,
          -22.2356132889646
        ]
      }
    },
    {
      "type": "Feature",
      "properties": {
        "norad_id": 33446,
        "name": "YAOGAN-4",
        "group": "resource",
        "lat": -49.52811067743139,
        "lon": 84.15176982820465,
        "alt_km": 630.2571476638159,
        "timestamp": "2025-12-09T09:46:47.303694+00:00",
        "meta_object_name": "YAOGAN-4",
        "meta_object_id": "2008-061A",
        "meta_epoch": "2025-12-08T19:47:11.729184",
        "meta_mean_motion": 14.82664885,
        "meta_eccentricity": 0.00139192,
        "meta_inclination": 97.9177,
        "meta_ra_of_asc_node": 272.962,
        "meta_arg_of_pericenter": 336.595,
        "meta_mean_anomaly": 23.4628,
        "meta_ephemeris_type": 0,
        "meta_classification_type": "U",
        "meta_norad_cat_id": 33446,
        "meta_element_set_no": 999,
        "meta_rev_at_epoch": 91745,
        "meta_bstar": 0.00038742009,
        "meta_mean_motion_dot": 3.075e-05,
        "meta_mean_motion_ddot": 0,
        "tle_line1": "1 33446U 08061A   25342.82444131  .00003075  00000+0  38742-3 0  9999",
        "tle_line2": "2 33446  97.9177 272.9620 0013919 336.5950  23.4628 14.82664885917457"
      },
      "geometry": {
        "type": "Point",
        "coordinates": [
          84.15176982820465,
          -49.52811067743139
        ]
      }
    },
    {
      "type": "Feature",
      "properties": {
        "norad_id": 33492,
        "name": "GOSAT (IBUKI)",
        "group": "resource",
        "lat": 74.34604384783786,
        "lon": -57.4946648269833,
        "alt_km": 661.1639341729851,
        "timestamp": "2025-12-09T09:46:47.303706+00:00",
        "meta_object_name": "GOSAT (IBUKI)",
        "meta_object_id": "2009-002A",
        "meta_epoch": "2025-12-09T04:24:04.320576",
        "meta_mean_motion": 14.67543478,
        "meta_eccentricity": 9.66e-05,
        "meta_inclination": 98.0769,
        "meta_ra_of_asc_node": 91.8362,
        "meta_arg_of_pericenter": 89.0788,
        "meta_mean_anomaly": 271.0527,
        "meta_ephemeris_type": 0,
        "meta_classification_type": "U",
        "meta_norad_cat_id": 33492,
        "meta_element_set_no": 999,
        "meta_rev_at_epoch": 90359,
        "meta_bstar": 0.00025702,
        "meta_mean_motion_dot": 1.41e-05,
        "meta_mean_motion_ddot": 0,
        "tle_line1": "1 33492U 09002A   25343.18338334  .00001410  00000+0  25702-3 0  9996",
        "tle_line2": "2 33492  98.0769  91.8362 0000966  89.0788 271.0527 14.67543478903591"
      },
      "geometry": {
        "type": "Point",
        "coordinates": [
          -57.4946648269833,
          74.34604384783786
        ]
      }
    },
    {
      "type": "Feature",
      "properties": {
        "norad_id": 35681,
        "name": "DEIMOS-1",
        "group": "resource",
        "lat": 81.82906431304383,
        "lon": 34.91217571291205,
        "alt_km": 635.9878632467316,
        "timestamp": "2025-12-09T09:46:47.303717+00:00",
        "meta_object_name": "DEIMOS-1",
        "meta_object_id": "2009-041A",
        "meta_epoch": "2025-12-08T23:35:32.349120",
        "meta_mean_motion": 14.74944279,
        "meta_eccentricity": 0.00027139,
        "meta_inclination": 97.7145,
        "meta_ra_of_asc_node": 143.7609,
        "meta_arg_of_pericenter": 85.3579,
        "meta_mean_anomaly": 274.7941,
        "meta_ephemeris_type": 0,
        "meta_classification_type": "U",
        "meta_norad_cat_id": 35681,
        "meta_element_set_no": 999,
        "meta_rev_at_epoch": 87884,
        "meta_bstar": 0.00018870686,
        "meta_mean_motion_dot": 1.22e-05,
        "meta_mean_motion_ddot": 0,
        "tle_line1": "1 35681U 09041A   25342.98301330  .00001220  00000+0  18871-3 0  9992",
        "tle_line2": "2 35681  97.7145 143.7609 0002713  85.3579 274.7941 14.74944279878848"
      },
      "geometry": {
        "type": "Point",
        "coordinates": [
          34.91217571291205,
          81.82906431304383
        ]
      }
    },
    {
      "type": "Feature",
      "properties": {
        "norad_id": 35682,
        "name": "DUBAISAT-1",
        "group": "resource",
        "lat": 31.343049982005596,
        "lon": 109.23597994818384,
        "alt_km": 641.8775498304431,
        "timestamp": "2025-12-09T09:46:47.303728+00:00",
        "meta_object_name": "DUBAISAT-1",
        "meta_object_id": "2009-041B",
        "meta_epoch": "2025-12-08T22:14:12.682752",
        "meta_mean_motion": 14.74586479,
        "meta_eccentricity": 0.00097882,
        "meta_inclination": 97.979,
        "meta_ra_of_asc_node": 113.6627,
        "meta_arg_of_pericenter": 327.7972,
        "meta_mean_anomaly": 32.2638,
        "meta_ephemeris_type": 0,
        "meta_classification_type": "U",
        "meta_norad_cat_id": 35682,
        "meta_element_set_no": 999,
        "meta_rev_at_epoch": 87705,
        "meta_bstar": 0.00030199695,
        "meta_mean_motion_dot": 1.963e-05,
        "meta_mean_motion_ddot": 0,
        "tle_line1": "1 35682U 09041B   25342.92653568  .00001963  00000+0  30200-3 0  9994",
        "tle_line2": "2 35682  97.9790 113.6627 0009788 327.7972  32.2638 14.74586479877058"
      },
      "geometry": {
        "type": "Point",
        "coordinates": [
          109.23597994818384,
          31.343049982005596
        ]
      }
    },
    {
      "type": "Feature",
      "properties": {
        "norad_id": 35931,
        "name": "OCEANSAT-2",
        "group": "resource",
        "lat": 26.832619095143563,
        "lon": -19.848375409696377,
        "alt_km": 883.3452591877967,
        "timestamp": "2025-12-09T09:46:47.303739+00:00",
        "meta_object_name": "OCEANSAT-2",
        "meta_object_id": "2009-051A",
        "meta_epoch": "2025-12-09T04:30:13.608864",
        "meta_mean_motion": 13.99625369,
        "meta_eccentricity": 0.0016356,
        "meta_inclination": 98.2225,
        "meta_ra_of_asc_node": 344.1486,
        "meta_arg_of_pericenter": 54.3063,
        "meta_mean_anomaly": 305.9624,
        "meta_ephemeris_type": 0,
        "meta_classification_type": "U",
        "meta_norad_cat_id": 35931,
        "meta_element_set_no": 999,
        "meta_rev_at_epoch": 85275,
        "meta_bstar": -8.4705e-05,
        "meta_mean_motion_dot": -1.61e-06,
        "meta_mean_motion_ddot": 0,
        "tle_line1": "1 35931U 09051A   25343.18765751 -.00000161  00000+0 -84705-4 0  9990",
        "tle_line2": "2 35931  98.2225 344.1486 0016356  54.3063 305.9624 13.99625369852752"
      },
      "geometry": {
        "type": "Point",
        "coordinates": [
          -19.848375409696377,
          26.832619095143563
        ]
      }
    },
    {
      "type": "Feature",
      "properties": {
        "norad_id": 35946,
        "name": "WORLDVIEW-2 (WV-2)",
        "group": "resource",
        "lat": 51.8213963219217,
        "lon": 43.60555613630795,
        "alt_km": 757.8714526881649,
        "timestamp": "2025-12-09T09:46:47.303750+00:00",
        "meta_object_name": "WORLDVIEW-2 (WV-2)",
        "meta_object_id": "2009-055A",
        "meta_epoch": "2025-12-08T21:50:36.686112",
        "meta_mean_motion": 14.37649921,
        "meta_eccentricity": 0.00053787,
        "meta_inclination": 98.4764,
        "meta_ra_of_asc_node": 54.0477,
        "meta_arg_of_pericenter": 76.1323,
        "meta_mean_anomaly": 284.0462,
        "meta_ephemeris_type": 0,
        "meta_classification_type": "U",
        "meta_norad_cat_id": 35946,
        "meta_element_set_no": 999,
        "meta_rev_at_epoch": 84830,
        "meta_bstar": 0.00011462194,
        "meta_mean_motion_dot": 3.01e-06,
        "meta_mean_motion_ddot": 0,
        "tle_line1": "1 35946U 09055A   25342.91014683  .00000301  00000+0  11462-3 0  9994",
        "tle_line2": "2 35946  98.4764  54.0477 0005378  76.1323 284.0462 14.37649921848304"
      },
      "geometry": {
        "type": "Point",
        "coordinates": [
          43.60555613630795,
          51.8213963219217
        ]
      }
    }
  ]
}